{
"type": "FeatureCollection",
"name": "geotemplate-states-mawn",
"crs": { "type": "name", "properties": { "name": "urn:ogc:def:crs:EPSG::3857" } },
"features": [
{ "type": "Feature", "properties": { "Shape_Length": 21.353306800145557, "Shape_Area": 21.874874472022185, "OBJECTID": 5, "STATE_NAME": "North Dakota", "STATE_FIPS": "38", "SUB_REGION": "West North Central", "STATE_ABBR": "ND", "POP2000": 642200, "POP2007": 657816, "POP00_SQMI": 9.1, "POP07_SQMI": 9.3, "WHITE": 593181, "BLACK": 3916, "AMERI_ES": 31329, "ASIAN": 3606, "HAWN_PI": 230, "OTHER": 2540, "MULT_RACE": 7398, "HISPANIC": 7786, "MALES": 320524, "FEMALES": 321676, "AGE_UNDER5": 39400, "AGE_5_17": 121449, "AGE_18_21": 45048, "AGE_22_29": 66862, "AGE_30_39": 85086, "AGE_40_49": 98449, "AGE_50_64": 91428, "AGE_65_UP": 94478, "MED_AGE": 36.2, "MED_AGE_M": 34.8, "MED_AGE_F": 37.5, "HOUSEHOLDS": 257152, "AVE_HH_SZ": 2.41, "HSEHLD_1_M": 34487, "HSEHLD_1_F": 40933, "MARHH_CHD": 62002, "MARHH_NO_C": 75431, "MHH_CHILD": 4812, "FHH_CHILD": 13639, "FAMILIES": 166150, "AVE_FAM_SZ": 3.0, "HSE_UNITS": 289677, "VACANT": 32525, "OWNER_OCC": 171299, "RENTER_OCC": 85853, "NO_FARMS97": 30504.0, "AVG_SIZE97": 1290.0, "CROP_ACR97": 27024895.0, "AVG_SALE97": 94.06, "SQMI": 70812 }, "geometry": { "type": "MultiLineString", "coordinates": [ [ [ -10840543.453, 6274859.470299400389194 ], [ -10823531.353220598772168, 6274859.318580721504986 ], [ -10822076.706991177052259, 6263302.263615690171719 ], [ -10817552.502991059795022, 6253467.817631578072906 ], [ -10817048.992227042093873, 6247076.400068596936762 ], [ -10818075.078797781839967, 6243619.733655130490661 ], [ -10816326.308405864983797, 6242745.903165724128485 ], [ -10817354.044322997331619, 6241249.415852039121091 ], [ -10814412.013614738360047, 6237811.779068406671286 ], [ -10813491.401819594204426, 6234834.264711380936205 ], [ -10814454.578364599496126, 6233502.132243566215038 ], [ -10812740.639465412124991, 6232078.045627135783434 ], [ -10812997.158229874446988, 6228536.717040036804974 ], [ -10810247.023543005809188, 6225557.919774781912565 ], [ -10810985.963962912559509, 6223307.844611959531903 ], [ -10808807.440175963565707, 6219815.121577109210193 ], [ -10809971.929984658956528, 6212302.752447904087603 ], [ -10812177.644210422411561, 6212277.108565025962889 ], [ -10811678.250855706632137, 6210757.046042921952903 ], [ -10814100.548839990049601, 6209621.419033408164978 ], [ -10813665.714857403188944, 6205056.434843169525266 ], [ -10815600.493279296904802, 6204506.97567315865308 ], [ -10814925.287608373910189, 6202692.420613999478519 ], [ -10816685.954818395897746, 6200910.406057822518051 ], [ -10814312.09235611744225, 6198770.050815067254007 ], [ -10815850.224545378237963, 6198020.220424740575254 ], [ -10815304.962141746655107, 6196897.118484737351537 ], [ -10813506.93751129694283, 6196266.6434087427333 ], [ -10814502.367863394320011, 6193460.140974446199834 ], [ -10812973.577832380309701, 6193353.039011485874653 ], [ -10813977.525719583034515, 6180052.626197488978505 ], [ -10811308.108893748372793, 6179883.569071244448423 ], [ -10811638.506162809208035, 6176361.998704317957163 ], [ -10814871.869708765298128, 6176949.450173650868237 ], [ -10814668.889979518949986, 6175335.89530023932457 ], [ -10812364.684596091508865, 6174982.707912459969521 ], [ -10815670.24276158772409, 6171683.207350330427289 ], [ -10813041.602984337136149, 6171046.90160842332989 ], [ -10812883.638848593458533, 6169043.226784760132432 ], [ -10814732.607309009879827, 6167495.135150725953281 ], [ -10812587.231129735708237, 6167206.195234511978924 ], [ -10813256.508564189076424, 6161260.630117833614349 ], [ -10810524.268209444358945, 6160245.125964129343629 ], [ -10812755.425618030130863, 6158745.884400856681168 ], [ -10810764.634191384539008, 6157515.560438903979957 ], [ -10810649.984444703906775, 6156053.758005604147911 ], [ -10812519.321306886151433, 6155745.520539333112538 ], [ -10810534.481242604553699, 6154592.205655691213906 ], [ -10810426.624800801277161, 6153208.741749292239547 ], [ -10813203.038806522265077, 6150968.832849880680442 ], [ -10811770.248644260689616, 6150080.876224698498845 ], [ -10812189.858283679932356, 6145793.108243707567453 ], [ -10810150.677686931565404, 6144878.255800846032798 ], [ -10813547.939511710777879, 6143826.602870770730078 ], [ -10810335.87841315753758, 6141462.803639211691916 ], [ -10812554.296961, 6140817.401220127940178 ], [ -10813271.986591340973973, 6139368.018979865126312 ], [ -10813162.480903262272477, 6136056.021463695913553 ], [ -10813290.745991878211498, 6134811.163213726133108 ], [ -10810910.989831794053316, 6133384.989705475047231 ], [ -10813187.185859663411975, 6131578.578544851392508 ], [ -10811451.200480151921511, 6130640.423724218271673 ], [ -10811557.430701453238726, 6126236.416429510340095 ], [ -10809014.61820506863296, 6123669.537384626455605 ], [ -10808312.308592164888978, 6118565.554372269660234 ], [ -10805456.952813679352403, 6114871.442013111896813 ], [ -10803339.862799851223826, 6099359.120384913869202 ], [ -10799697.258221793919802, 6093205.523471475578845 ], [ -10800280.033720124512911, 6086178.931135971099138 ], [ -10798028.508009880781174, 6085287.489159870892763 ], [ -10795456.036911649629474, 6078292.588751533068717 ], [ -10796197.566530089825392, 6075247.510905258357525 ], [ -10793296.312870407477021, 6072724.915232438594103 ], [ -10790422.290094828233123, 6067600.506739854812622 ], [ -10789492.387899385765195, 6059421.454720354638994 ], [ -10785681.519655587151647, 6052778.037159845232964 ], [ -10783890.380633361637592, 6043083.99391601420939 ], [ -10781539.464158369228244, 6040755.322821485809982 ], [ -10782257.211553372442722, 6034455.469179747626185 ], [ -10781202.371694253757596, 6031418.879999389871955 ], [ -10782482.353192158043385, 6027591.725434395484626 ], [ -10781472.534733042120934, 6024174.106337710283697 ], [ -10783149.946741551160812, 6017736.859220299869776 ], [ -10781941.346652826294303, 6013656.983887777663767 ], [ -10783212.781783353537321, 6009762.997463601641357 ], [ -10781293.296882061287761, 6009080.194549365900457 ], [ -10780160.288015265017748, 6004998.746890258044004 ], [ -10781362.930935133248568, 6001191.390172759070992 ], [ -10780008.246309492737055, 5998116.90461731236428 ], [ -10780930.605560855939984, 5993577.188598059117794 ], [ -10779925.002620872110128, 5990176.070388381369412 ], [ -10781250.789796750992537, 5984098.732999361120164 ], [ -10779852.802294943481684, 5981411.779953375458717 ], [ -10778675.677441725507379, 5969877.133589645847678 ], [ -10780086.415317170321941, 5966901.189589587040246 ], [ -10777858.671930467709899, 5957202.51669458579272 ], [ -10778728.391753692179918, 5954951.087980827316642 ], [ -10778243.450077161192894, 5947614.449335224926472 ], [ -10779655.889157047495246, 5943744.247931918129325 ], [ -10778457.496395096182823, 5942635.068450262770057 ], [ -10777593.785498671233654, 5937142.68419838603586 ], [ -10774994.862087931483984, 5937120.162444781512022 ], [ -10775936.782237088307738, 5934869.621597937308252 ], [ -10774581.272988308221102, 5933623.501872706227005 ], [ -10774382.560636255890131, 5931011.884282610379159 ], [ -10771615.460056610405445, 5931676.558341534808278 ], [ -10770930.075991310179234, 5929478.968241988681257 ], [ -10773284.487078405916691, 5920448.971247475594282 ], [ -10772192.295705476775765, 5916788.216873395256698 ], [ -10775414.67935979925096, 5911446.882518379017711 ], [ -10773542.851208694279194, 5903363.259529635310173 ], [ -10773673.607686346396804, 5894386.650065091438591 ], [ -10775024.843651326373219, 5889803.398478528484702 ], [ -10774640.878614878281951, 5881851.635905286297202 ], [ -10773980.949245288968086, 5880933.972314124926925 ], [ -10772503.091531351208687, 5877023.912236205302179 ], [ -10770297.383112085983157, 5875182.901360438205302 ], [ -10769082.716432007029653, 5859131.061589663848281 ], [ -10766252.734658908098936, 5855782.493010180070996 ], [ -10765672.623443152755499, 5849069.49065816309303 ], [ -10763284.309302687644958, 5846655.362357676029205 ], [ -10759262.733778901398182, 5838137.009902568534017 ], [ -10755117.183569468557835, 5836746.50065144430846 ], [ -10753693.712639778852463, 5834410.192249838262796 ], [ -10753260.551029358059168, 5818681.122714364901185 ], [ -10751955.120642248541117, 5814936.767135391943157 ], [ -10752114.762956658378243, 5811157.793161238543689 ], [ -10750253.032509613782167, 5808787.187497192062438 ], [ -10748111.791159145534039, 5795671.03456973657012 ], [ -10750815.105131739750504, 5783759.95382306817919 ], [ -10749210.648994961753488, 5771969.359329644590616 ], [ -10749780.52985816821456, 5769796.651039551943541 ], [ -10823962.548329588025808, 5770179.564702088013291 ], [ -10840543.453, 5769997.876624344848096 ] ] ] } },
{ "type": "Feature", "properties": { "Shape_Length": 29.511054779002809, "Shape_Area": 25.577835738136617, "OBJECTID": 11, "STATE_NAME": "Minnesota", "STATE_FIPS": "27", "SUB_REGION": "West North Central", "STATE_ABBR": "MN", "POP2000": 4919479, "POP2007": 5360578, "POP00_SQMI": 58.2, "POP07_SQMI": 63.4, "WHITE": 4400282, "BLACK": 171731, "AMERI_ES": 54967, "ASIAN": 141968, "HAWN_PI": 1979, "OTHER": 65810, "MULT_RACE": 82742, "HISPANIC": 143382, "MALES": 2435631, "FEMALES": 2483848, "AGE_UNDER5": 329594, "AGE_5_17": 957300, "AGE_18_21": 284191, "AGE_22_29": 506069, "AGE_30_39": 765802, "AGE_40_49": 775939, "AGE_50_64": 706318, "AGE_65_UP": 594266, "MED_AGE": 35.4, "MED_AGE_M": 34.4, "MED_AGE_F": 36.3, "HOUSEHOLDS": 1895127, "AVE_HH_SZ": 2.52, "HSEHLD_1_M": 224075, "HSEHLD_1_F": 285393, "MARHH_CHD": 477615, "MARHH_NO_C": 540630, "MHH_CHILD": 37305, "FHH_CHILD": 111371, "FAMILIES": 1255141, "AVE_FAM_SZ": 3.09, "HSE_UNITS": 2065946, "VACANT": 170819, "OWNER_OCC": 1412865, "RENTER_OCC": 482262, "NO_FARMS97": 73367.0, "AVG_SIZE97": 354.0, "CROP_ACR97": 21491743.0, "AVG_SALE97": 113.0, "SQMI": 84520 }, "geometry": { "type": "MultiLineString", "coordinates": [ [ [ -10211377.650340786203742, 5388323.556338899768889 ], [ -10250024.034518456086516, 5388259.367784483358264 ], [ -10291839.707512499764562, 5388306.694294607266784 ], [ -10303510.365536851808429, 5388429.09369454998523 ], [ -10355741.737268900498748, 5388585.537851486355066 ], [ -10358766.233194308355451, 5388612.94246378634125 ], [ -10408464.80934358201921, 5388464.241336680017412 ], [ -10425482.138092953711748, 5388506.321657905355096 ], [ -10461132.23762683570385, 5388435.135852710343897 ], [ -10491504.383562300354242, 5388227.901835379190743 ], [ -10514709.026710109785199, 5388098.016252765432 ], [ -10559749.00360813178122, 5388393.938318932428956 ], [ -10566497.796563660725951, 5388292.781754495576024 ], [ -10619496.325603513047099, 5388440.533898254856467 ], [ -10627090.179477417841554, 5388318.833936580456793 ], [ -10671855.829775681719184, 5388227.210119524039328 ], [ -10693466.004767943173647, 5388164.246666027233005 ], [ -10737928.70202006213367, 5388346.070763492025435 ], [ -10737499.85393850132823, 5442064.393171679228544 ], [ -10737588.374334219843149, 5496299.251005157828331 ], [ -10737333.302990099415183, 5549133.524989902973175 ], [ -10737512.708128351718187, 5563273.078855481930077 ], [ -10737345.672837743535638, 5590301.753203094005585 ], [ -10737441.690025882795453, 5617113.722734959796071 ], [ -10737265.445125412195921, 5664949.920284323394299 ], [ -10737611.164747355505824, 5668692.682616856880486 ], [ -10739836.422651637345552, 5673387.676409240812063 ], [ -10745954.189293606206775, 5680772.971531920135021 ], [ -10754028.815576687455177, 5684163.64814283605665 ], [ -10763834.358164604753256, 5686401.387100879102945 ], [ -10768828.498543297871947, 5693945.704155353829265 ], [ -10772303.214275229722261, 5703359.186645346693695 ], [ -10780523.152330134063959, 5713948.067883326672018 ], [ -10781848.149421537294984, 5717930.498293114826083 ], [ -10779377.525738203898072, 5724547.169656733050942 ], [ -10759851.633533138781786, 5738617.289942984469235 ], [ -10753976.07243244163692, 5749676.4861975973472 ], [ -10752122.000258583575487, 5751208.150965102948248 ], [ -10749780.52985816821456, 5769796.651039551943541 ], [ -10749210.648994961753488, 5771969.359329644590616 ], [ -10750815.105131739750504, 5783759.95382306817919 ], [ -10748111.791159145534039, 5795671.03456973657012 ], [ -10750253.032509613782167, 5808787.187497192062438 ], [ -10752114.762956658378243, 5811157.793161238543689 ], [ -10751955.120642248541117, 5814936.767135391943157 ], [ -10753260.551029358059168, 5818681.122714364901185 ], [ -10753693.712639778852463, 5834410.192249838262796 ], [ -10755117.183569468557835, 5836746.50065144430846 ], [ -10759262.733778901398182, 5838137.009902568534017 ], [ -10763284.309302687644958, 5846655.362357676029205 ], [ -10765672.623443152755499, 5849069.49065816309303 ], [ -10766252.734658908098936, 5855782.493010180070996 ], [ -10769082.716432007029653, 5859131.061589663848281 ], [ -10770297.383112085983157, 5875182.901360438205302 ], [ -10772503.091531351208687, 5877023.912236205302179 ], [ -10773980.949245288968086, 5880933.972314124926925 ], [ -10774640.878614878281951, 5881851.635905286297202 ], [ -10775024.843651326373219, 5889803.398478528484702 ], [ -10773673.607686346396804, 5894386.650065091438591 ], [ -10773542.851208694279194, 5903363.259529635310173 ], [ -10775414.67935979925096, 5911446.882518379017711 ], [ -10772192.295705476775765, 5916788.216873395256698 ], [ -10773284.487078405916691, 5920448.971247475594282 ], [ -10770930.075991310179234, 5929478.968241988681257 ], [ -10771615.460056610405445, 5931676.558341534808278 ], [ -10774382.560636255890131, 5931011.884282610379159 ], [ -10774581.272988308221102, 5933623.501872706227005 ], [ -10775936.782237088307738, 5934869.621597937308252 ], [ -10774994.862087931483984, 5937120.162444781512022 ], [ -10777593.785498671233654, 5937142.68419838603586 ], [ -10778457.496395096182823, 5942635.068450262770057 ], [ -10779655.889157047495246, 5943744.247931918129325 ], [ -10778243.450077161192894, 5947614.449335224926472 ], [ -10778728.391753692179918, 5954951.087980827316642 ], [ -10777858.671930467709899, 5957202.51669458579272 ], [ -10780086.415317170321941, 5966901.189589587040246 ], [ -10778675.677441725507379, 5969877.133589645847678 ], [ -10779852.802294943481684, 5981411.779953375458717 ], [ -10781250.789796750992537, 5984098.732999361120164 ], [ -10779925.002620872110128, 5990176.070388381369412 ], [ -10780930.605560855939984, 5993577.188598059117794 ], [ -10780008.246309492737055, 5998116.90461731236428 ], [ -10781362.930935133248568, 6001191.390172759070992 ], [ -10780160.288015265017748, 6004998.746890258044004 ], [ -10781293.296882061287761, 6009080.194549365900457 ], [ -10783212.781783353537321, 6009762.997463601641357 ], [ -10781941.346652826294303, 6013656.983887777663767 ], [ -10783149.946741551160812, 6017736.859220299869776 ], [ -10781472.534733042120934, 6024174.106337710283697 ], [ -10782482.353192158043385, 6027591.725434395484626 ], [ -10781202.371694253757596, 6031418.879999389871955 ], [ -10782257.211553372442722, 6034455.469179747626185 ], [ -10781539.464158369228244, 6040755.322821485809982 ], [ -10783890.380633361637592, 6043083.99391601420939 ], [ -10785681.519655587151647, 6052778.037159845232964 ], [ -10789492.387899385765195, 6059421.454720354638994 ], [ -10790422.290094828233123, 6067600.506739854812622 ], [ -10793296.312870407477021, 6072724.915232438594103 ], [ -10796197.566530089825392, 6075247.510905258357525 ], [ -10795456.036911649629474, 6078292.588751533068717 ], [ -10798028.508009880781174, 6085287.489159870892763 ], [ -10800280.033720124512911, 6086178.931135971099138 ], [ -10799697.258221793919802, 6093205.523471475578845 ], [ -10803339.862799851223826, 6099359.120384913869202 ], [ -10805456.952813679352403, 6114871.442013111896813 ], [ -10808312.308592164888978, 6118565.554372269660234 ], [ -10809014.61820506863296, 6123669.537384626455605 ], [ -10811557.430701453238726, 6126236.416429510340095 ], [ -10811451.200480151921511, 6130640.423724218271673 ], [ -10813187.185859663411975, 6131578.578544851392508 ], [ -10810910.989831794053316, 6133384.989705475047231 ], [ -10813290.745991878211498, 6134811.163213726133108 ], [ -10813162.480903262272477, 6136056.021463695913553 ], [ -10813271.986591340973973, 6139368.018979865126312 ], [ -10812554.296961, 6140817.401220127940178 ], [ -10810335.87841315753758, 6141462.803639211691916 ], [ -10813547.939511710777879, 6143826.602870770730078 ], [ -10810150.677686931565404, 6144878.255800846032798 ], [ -10812189.858283679932356, 6145793.108243707567453 ], [ -10811770.248644260689616, 6150080.876224698498845 ], [ -10813203.038806522265077, 6150968.832849880680442 ], [ -10810426.624800801277161, 6153208.741749292239547 ], [ -10810534.481242604553699, 6154592.205655691213906 ], [ -10812519.321306886151433, 6155745.520539333112538 ], [ -10810649.984444703906775, 6156053.758005604147911 ], [ -10810764.634191384539008, 6157515.560438903979957 ], [ -10812755.425618030130863, 6158745.884400856681168 ], [ -10810524.268209444358945, 6160245.125964129343629 ], [ -10813256.508564189076424, 6161260.630117833614349 ], [ -10812587.231129735708237, 6167206.195234511978924 ], [ -10814732.607309009879827, 6167495.135150725953281 ], [ -10812883.638848593458533, 6169043.226784760132432 ], [ -10813041.602984337136149, 6171046.90160842332989 ], [ -10815670.24276158772409, 6171683.207350330427289 ], [ -10812364.684596091508865, 6174982.707912459969521 ], [ -10814668.889979518949986, 6175335.89530023932457 ], [ -10814871.869708765298128, 6176949.450173650868237 ], [ -10811638.506162809208035, 6176361.998704317957163 ], [ -10811308.108893748372793, 6179883.569071244448423 ], [ -10813977.525719583034515, 6180052.626197488978505 ], [ -10812973.577832380309701, 6193353.039011485874653 ], [ -10814502.367863394320011, 6193460.140974446199834 ], [ -10813506.93751129694283, 6196266.6434087427333 ], [ -10815304.962141746655107, 6196897.118484737351537 ], [ -10815850.224545378237963, 6198020.220424740575254 ], [ -10814312.09235611744225, 6198770.050815067254007 ], [ -10816685.954818395897746, 6200910.406057822518051 ], [ -10814925.287608373910189, 6202692.420613999478519 ], [ -10815600.493279296904802, 6204506.97567315865308 ], [ -10813665.714857403188944, 6205056.434843169525266 ], [ -10814100.548839990049601, 6209621.419033408164978 ], [ -10811678.250855706632137, 6210757.046042921952903 ], [ -10812177.644210422411561, 6212277.108565025962889 ], [ -10809971.929984658956528, 6212302.752447904087603 ], [ -10808807.440175963565707, 6219815.121577109210193 ], [ -10810985.963962912559509, 6223307.844611959531903 ], [ -10810247.023543005809188, 6225557.919774781912565 ], [ -10812997.158229874446988, 6228536.717040036804974 ], [ -10812740.639465412124991, 6232078.045627135783434 ], [ -10814454.578364599496126, 6233502.132243566215038 ], [ -10813491.401819594204426, 6234834.264711380936205 ], [ -10814412.013614738360047, 6237811.779068406671286 ], [ -10817354.044322997331619, 6241249.415852039121091 ], [ -10816326.308405864983797, 6242745.903165724128485 ], [ -10818075.078797781839967, 6243619.733655130490661 ], [ -10817048.992227042093873, 6247076.400068596936762 ], [ -10817552.502991059795022, 6253467.817631578072906 ], [ -10822076.706991177052259, 6263302.263615690171719 ], [ -10823531.353220598772168, 6274859.318580721504986 ], [ -10731968.709100674837828, 6274858.351731893606484 ], [ -10606148.953251676633954, 6274859.898751095868647 ], [ -10592912.263104991987348, 6274860.698659935966134 ], [ -10592651.657734481617808, 6300000.0 ] ], [ [ -10549887.664353085681796, 6300000.0 ], [ -10539868.533965095877647, 6254043.885635742917657 ], [ -10541335.953694036230445, 6237211.295507310889661 ], [ -10527519.060128381475806, 6226417.159742567688227 ], [ -10511970.143018364906311, 6225929.433409051038325 ] ], [ [ -10275139.443106405436993, 5887819.559111307375133 ], [ -10273372.07479471899569, 5886556.025142537429929 ], [ -10273529.450772041454911, 5847263.399459931068122 ], [ -10273558.250212082639337, 5805480.196683372370899 ], [ -10273605.716749334707856, 5792092.334063153713942 ], [ -10277836.11384211666882, 5789468.67915094923228 ], [ -10279934.727071778848767, 5783971.006919852457941 ], [ -10282020.62446647323668, 5782953.483648536726832 ], [ -10288703.854626573622227, 5784437.213472919538617 ], [ -10292861.249796058982611, 5777336.628150815144181 ], [ -10299721.993677031248808, 5777558.607504245825112 ], [ -10302916.327630620449781, 5772543.507531701587141 ], [ -10315555.075600368902087, 5766850.860241399146616 ], [ -10320011.513939017429948, 5762892.370735636912286 ], [ -10323112.529525713995099, 5755541.974679189734161 ], [ -10324744.948866387829185, 5754314.983179165050387 ], [ -10328122.949629036709666, 5742505.128945230506361 ], [ -10334193.117185367271304, 5737328.569540240801871 ], [ -10337130.113457746803761, 5734087.362796129658818 ], [ -10339955.135778898373246, 5723634.477359695360065 ], [ -10339001.555176248773932, 5713112.456303076818585 ], [ -10334349.045642232522368, 5710658.040276323445141 ], [ -10326238.077075148001313, 5710794.987552717328072 ], [ -10322450.962322620674968, 5708088.981577853672206 ], [ -10317693.871913697570562, 5695827.818733492866158 ], [ -10314287.129375565797091, 5693473.810925341211259 ], [ -10313191.449096912518144, 5690971.587265718728304 ], [ -10313611.785349760204554, 5683995.851602677255869 ], [ -10317632.507318016141653, 5678862.705788443796337 ], [ -10320138.821756003424525, 5671755.702524526976049 ], [ -10324503.544922478497028, 5668495.31750563532114 ], [ -10325486.046000670641661, 5655018.015912209637463 ], [ -10326283.507833413779736, 5650947.745462373830378 ], [ -10324318.920841790735722, 5646180.746577206999063 ], [ -10324373.174877429381013, 5639329.236215511336923 ], [ -10330088.274847079068422, 5631856.401863389648497 ], [ -10326328.984843455255032, 5625004.378616339527071 ], [ -10326789.279228139668703, 5621679.686512991786003 ], [ -10324856.928624108433723, 5611397.449742533266544 ], [ -10325319.789181537926197, 5608150.323119322769344 ], [ -10327317.42006473056972, 5605713.034899244084954 ], [ -10326470.571344967931509, 5599859.07547982595861 ], [ -10326110.411657843738794, 5595641.156010552309453 ], [ -10331070.429937947541475, 5581647.793344095349312 ], [ -10323451.836468864232302, 5576544.929308338090777 ], [ -10311565.350131696090102, 5565438.768869383260608 ], [ -10309183.788850834593177, 5560377.220260275527835 ], [ -10298078.692254217341542, 5554885.126845213584602 ], [ -10279338.907070545479655, 5551397.149013708345592 ], [ -10277068.598933989182115, 5549468.981884596869349 ], [ -10274420.253997448831797, 5541927.084730993956327 ], [ -10269122.877956237643957, 5536316.366300328634679 ], [ -10264340.269480660557747, 5533537.280067444778979 ], [ -10251560.338661279529333, 5529982.534073037095368 ], [ -10238319.173504969105124, 5522021.769087587483227 ], [ -10234588.008286127820611, 5518071.308274539187551 ], [ -10232794.181955546140671, 5514711.324653930962086 ], [ -10232749.125916767865419, 5510172.588107531890273 ], [ -10229002.661370826885104, 5505376.978336930274963 ], [ -10224555.403709651902318, 5495076.678438831120729 ], [ -10213921.656573520973325, 5486703.103163668885827 ], [ -10202679.973372612148523, 5475800.29590449295938 ], [ -10197064.200696656480432, 5471761.695144556462765 ], [ -10193432.495420007035136, 5470853.188743093051016 ], [ -10188897.126921601593494, 5470738.602030167356133 ], [ -10177484.83302753791213, 5463217.093796282075346 ], [ -10171635.608810126781464, 5457273.519609618932009 ], [ -10162573.164496704936028, 5441824.97490752954036 ], [ -10158026.533390168100595, 5432704.779680733568966 ], [ -10158896.051387455314398, 5422582.311573289334774 ], [ -10158837.414645517244935, 5415642.103726899251342 ], [ -10156009.981725772842765, 5403577.874908165074885 ], [ -10156852.459252126514912, 5395867.96023528650403 ], [ -10154961.000925682485104, 5388513.37345486227423 ], [ -10198100.886733157560229, 5388485.3729088595137 ], [ -10211377.650340786203742, 5388323.556338899768889 ] ] ] } }
]
}
